STARLINK-35741          
1 66272U 25247H   25331.24933366  .00047970  00000+0  12014-2 0  9999
2 66272  53.1596 310.5300 0001326  93.5919 266.5238 15.39627738  5350
STARLINK-35730          
1 66273U 25247J   25331.24502778  .00037486  00000+0  94249-3 0  9991
2 66273  53.1595 310.5022 0001650  98.2383 261.8809 15.39620971  5352
STARLINK-35760          
1 66274U 25247K   25331.24468866  .00034134  00000+0  85985-3 0  9995
2 66274  53.1594 310.4999 0001719  95.9349 264.1851 15.39607932  5306
STARLINK-35752          
1 66275U 25247L   25331.25002315  .00022167  00000+0  56291-3 0  9991
2 66275  53.1589 310.4277 0001249  87.1767 326.4193 15.39600806  5129
STARLINK-35742          
1 66276U 25247M   25331.25002315  .00023400  00000+0  59357-3 0  9999
2 66276  53.1589 310.4239 0001283  86.4267 329.0320 15.39600421  5442
STARLINK-35708          
1 66277U 25247N   25331.25002315  .00022767  00000+0  57789-3 0  9992
2 66277  53.1588 310.3759 0001367  85.9237 353.4282 15.39596085  5440
STARLINK-35713          
1 66278U 25247P   25331.25002315  .00023880  00000+0  60557-3 0  9997
2 66278  53.1595 310.3235 0001652  90.5769  14.5220 15.39596323  5449
STARLINK-35724          
1 66279U 25247Q   25331.25002315  .00024718  00000+0  62662-3 0  9998
2 66279  53.1595 310.3201 0001296  84.0860  22.8932 15.39586524  5070
STARLINK-35726          
1 66280U 25247R   25331.25002315  .00023795  00000+0  60343-3 0  9998
2 66280  53.1588 310.3721 0001406  80.0027   1.2089 15.39597753  5121
STARLINK-35727          
1 66281U 25247S   25331.25002315  .00040348  00000+0  10141-2 0  9992
2 66281  53.1596 310.2728 0002116  86.2827  44.4840 15.39597676  5120
STARLINK-35776          
1 66282U 25247T   25331.25002315  .00041169  00000+0  10342-2 0  9998
2 66282  53.1598 310.2684 0001984  87.4349  45.2055 15.39603102  5127
STARLINK-35774          
1 66283U 25247U   25331.25002315  .00044576  00000+0  11199-2 0  9995
2 66283  53.1599 310.2208 0001339  90.4072  66.2378 15.39563657  5123
STARLINK-35830          
1 66284U 25247V   25331.25002315  .00044240  00000+0  11115-2 0  9992
2 66284  53.1600 310.2166 0001231  84.7322  73.7725 15.39565798  5122
STARLINK-35819          
1 66285U 25247W   25331.25002315 -.01952923  00000+0 -49027-1 0  9994
2 66285  53.1597 310.1777 0001384  73.2360 104.8494 15.42862893  5072
STARLINK-35783          
1 66286U 25247X   25331.15292741 -.00443101  00000+0 -10192-1 0  9991
2 66286  53.1597 310.6326 0001034  80.7867 279.3256 15.43800204  5292
STARLINK-34884          
1 66287U 25247Y   25331.08564698  .00077540  00000+0  14128-2 0  9999
2 66287  53.1593 310.9235 0006733 291.9475  68.0818 15.48792255  5280
