[{"OBJECT_NAME":"STARLINK-35741","OBJECT_ID":"2025-247H","EPOCH":"2025-11-27T05:59:02.428224","MEAN_MOTION":15.39627738,"ECCENTRICITY":0.00013264,"INCLINATION":53.1596,"RA_OF_ASC_NODE":310.53,"ARG_OF_PERICENTER":93.5919,"MEAN_ANOMALY":266.5238,"EPHEMERIS_TYPE":0,"CLASSIFICATION_TYPE":"U","NORAD_CAT_ID":66272,"ELEMENT_SET_NO":999,"REV_AT_EPOCH":535,"BSTAR":0.0012013853,"MEAN_MOTION_DOT":0.0004797,"MEAN_MOTION_DDOT":0},{"OBJECT_NAME":"STARLINK-35730","OBJECT_ID":"2025-247J","EPOCH":"2025-11-27T05:52:50.400192","MEAN_MOTION":15.39620971,"ECCENTRICITY":0.00016506,"INCLINATION":53.1595,"RA_OF_ASC_NODE":310.5022,"ARG_OF_PERICENTER":98.2383,"MEAN_ANOMALY":261.8809,"EPHEMERIS_TYPE":0,"CLASSIFICATION_TYPE":"U","NORAD_CAT_ID":66273,"ELEMENT_SET_NO":999,"REV_AT_EPOCH":535,"BSTAR":0.00094249267,"MEAN_MOTION_DOT":0.00037486,"MEAN_MOTION_DDOT":0},{"OBJECT_NAME":"STARLINK-35760","OBJECT_ID":"2025-247K","EPOCH":"2025-11-27T05:52:21.100224","MEAN_MOTION":15.39607932,"ECCENTRICITY":0.00017194,"INCLINATION":53.1594,"RA_OF_ASC_NODE":310.4999,"ARG_OF_PERICENTER":95.9349,"MEAN_ANOMALY":264.1851,"EPHEMERIS_TYPE":0,"CLASSIFICATION_TYPE":"U","NORAD_CAT_ID":66274,"ELEMENT_SET_NO":999,"REV_AT_EPOCH":530,"BSTAR":0.00085984722,"MEAN_MOTION_DOT":0.00034134,"MEAN_MOTION_DDOT":0},{"OBJECT_NAME":"STARLINK-35752","OBJECT_ID":"2025-247L","EPOCH":"2025-11-27T06:00:02.000160","MEAN_MOTION":15.39600806,"ECCENTRICITY":0.00012496,"INCLINATION":53.1589,"RA_OF_ASC_NODE":310.4277,"ARG_OF_PERICENTER":87.1767,"MEAN_ANOMALY":326.4193,"EPHEMERIS_TYPE":0,"CLASSIFICATION_TYPE":"U","NORAD_CAT_ID":66275,"ELEMENT_SET_NO":999,"REV_AT_EPOCH":512,"BSTAR":0.00056290508,"MEAN_MOTION_DOT":0.00022167,"MEAN_MOTION_DDOT":0},{"OBJECT_NAME":"STARLINK-35742","OBJECT_ID":"2025-247M","EPOCH":"2025-11-27T06:00:02.000160","MEAN_MOTION":15.39600421,"ECCENTRICITY":0.00012839,"INCLINATION":53.1589,"RA_OF_ASC_NODE":310.4239,"ARG_OF_PERICENTER":86.4267,"MEAN_ANOMALY":329.032,"EPHEMERIS_TYPE":0,"CLASSIFICATION_TYPE":"U","NORAD_CAT_ID":66276,"ELEMENT_SET_NO":999,"REV_AT_EPOCH":544,"BSTAR":0.00059356651,"MEAN_MOTION_DOT":0.000234,"MEAN_MOTION_DDOT":0},{"OBJECT_NAME":"STARLINK-35708","OBJECT_ID":"2025-247N","EPOCH":"2025-11-27T06:00:02.000160","MEAN_MOTION":15.39596085,"ECCENTRICITY":0.00013676,"INCLINATION":53.1588,"RA_OF_ASC_NODE":310.3759,"ARG_OF_PERICENTER":85.9237,"MEAN_ANOMALY":353.4282,"EPHEMERIS_TYPE":0,"CLASSIFICATION_TYPE":"U","NORAD_CAT_ID":66277,"ELEMENT_SET_NO":999,"REV_AT_EPOCH":544,"BSTAR":0.00057789463,"MEAN_MOTION_DOT":0.00022767,"MEAN_MOTION_DDOT":0},{"OBJECT_NAME":"STARLINK-35713","OBJECT_ID":"2025-247P","EPOCH":"2025-11-27T06:00:02.000160","MEAN_MOTION":15.39596323,"ECCENTRICITY":0.00016523,"INCLINATION":53.1595,"RA_OF_ASC_NODE":310.3235,"ARG_OF_PERICENTER":90.5769,"MEAN_ANOMALY":14.522,"EPHEMERIS_TYPE":0,"CLASSIFICATION_TYPE":"U","NORAD_CAT_ID":66278,"ELEMENT_SET_NO":999,"REV_AT_EPOCH":544,"BSTAR":0.00060556901,"MEAN_MOTION_DOT":0.0002388,"MEAN_MOTION_DDOT":0},{"OBJECT_NAME":"STARLINK-35724","OBJECT_ID":"2025-247Q","EPOCH":"2025-11-27T06:00:02.000160","MEAN_MOTION":15.39586524,"ECCENTRICITY":0.00012964,"INCLINATION":53.1595,"RA_OF_ASC_NODE":310.3201,"ARG_OF_PERICENTER":84.086,"MEAN_ANOMALY":22.8932,"EPHEMERIS_TYPE":0,"CLASSIFICATION_TYPE":"U","NORAD_CAT_ID":66279,"ELEMENT_SET_NO":999,"REV_AT_EPOCH":507,"BSTAR":0.00062662118,"MEAN_MOTION_DOT":0.00024718,"MEAN_MOTION_DDOT":0},{"OBJECT_NAME":"STARLINK-35726","OBJECT_ID":"2025-247R","EPOCH":"2025-11-27T06:00:02.000160","MEAN_MOTION":15.39597753,"ECCENTRICITY":0.00014067,"INCLINATION":53.1588,"RA_OF_ASC_NODE":310.3721,"ARG_OF_PERICENTER":80.0027,"MEAN_ANOMALY":1.2089,"EPHEMERIS_TYPE":0,"CLASSIFICATION_TYPE":"U","NORAD_CAT_ID":66280,"ELEMENT_SET_NO":999,"REV_AT_EPOCH":512,"BSTAR":0.0006034251,"MEAN_MOTION_DOT":0.00023795,"MEAN_MOTION_DDOT":0},{"OBJECT_NAME":"STARLINK-35727","OBJECT_ID":"2025-247S","EPOCH":"2025-11-27T06:00:02.000160","MEAN_MOTION":15.39597676,"ECCENTRICITY":0.00021167,"INCLINATION":53.1596,"RA_OF_ASC_NODE":310.2728,"ARG_OF_PERICENTER":86.2827,"MEAN_ANOMALY":44.484,"EPHEMERIS_TYPE":0,"CLASSIFICATION_TYPE":"U","NORAD_CAT_ID":66281,"ELEMENT_SET_NO":999,"REV_AT_EPOCH":512,"BSTAR":0.001014065,"MEAN_MOTION_DOT":0.00040348,"MEAN_MOTION_DDOT":0},{"OBJECT_NAME":"STARLINK-35776","OBJECT_ID":"2025-247T","EPOCH":"2025-11-27T06:00:02.000160","MEAN_MOTION":15.39603102,"ECCENTRICITY":0.00019849,"INCLINATION":53.1598,"RA_OF_ASC_NODE":310.2684,"ARG_OF_PERICENTER":87.4349,"MEAN_ANOMALY":45.2055,"EPHEMERIS_TYPE":0,"CLASSIFICATION_TYPE":"U","NORAD_CAT_ID":66282,"ELEMENT_SET_NO":999,"REV_AT_EPOCH":512,"BSTAR":0.001034208,"MEAN_MOTION_DOT":0.00041169,"MEAN_MOTION_DDOT":0},{"OBJECT_NAME":"STARLINK-35774","OBJECT_ID":"2025-247U","EPOCH":"2025-11-27T06:00:02.000160","MEAN_MOTION":15.39563657,"ECCENTRICITY":0.00013394,"INCLINATION":53.1599,"RA_OF_ASC_NODE":310.2208,"ARG_OF_PERICENTER":90.4072,"MEAN_ANOMALY":66.2378,"EPHEMERIS_TYPE":0,"CLASSIFICATION_TYPE":"U","NORAD_CAT_ID":66283,"ELEMENT_SET_NO":999,"REV_AT_EPOCH":512,"BSTAR":0.0011199464,"MEAN_MOTION_DOT":0.00044576,"MEAN_MOTION_DDOT":0},{"OBJECT_NAME":"STARLINK-35830","OBJECT_ID":"2025-247V","EPOCH":"2025-11-27T06:00:02.000160","MEAN_MOTION":15.39565798,"ECCENTRICITY":0.00012312,"INCLINATION":53.16,"RA_OF_ASC_NODE":310.2166,"ARG_OF_PERICENTER":84.7322,"MEAN_ANOMALY":73.7725,"EPHEMERIS_TYPE":0,"CLASSIFICATION_TYPE":"U","NORAD_CAT_ID":66284,"ELEMENT_SET_NO":999,"REV_AT_EPOCH":512,"BSTAR":0.0011115425,"MEAN_MOTION_DOT":0.0004424,"MEAN_MOTION_DDOT":0},{"OBJECT_NAME":"STARLINK-35819","OBJECT_ID":"2025-247W","EPOCH":"2025-11-27T06:00:02.000160","MEAN_MOTION":15.42862893,"ECCENTRICITY":0.00013849,"INCLINATION":53.1597,"RA_OF_ASC_NODE":310.1777,"ARG_OF_PERICENTER":73.236,"MEAN_ANOMALY":104.8494,"EPHEMERIS_TYPE":0,"CLASSIFICATION_TYPE":"U","NORAD_CAT_ID":66285,"ELEMENT_SET_NO":999,"REV_AT_EPOCH":507,"BSTAR":-0.049026946,"MEAN_MOTION_DOT":-0.01952923,"MEAN_MOTION_DDOT":0},{"OBJECT_NAME":"STARLINK-35783","OBJECT_ID":"2025-247X","EPOCH":"2025-11-27T03:40:12.928224","MEAN_MOTION":15.43800204,"ECCENTRICITY":0.00010347,"INCLINATION":53.1597,"RA_OF_ASC_NODE":310.6326,"ARG_OF_PERICENTER":80.7867,"MEAN_ANOMALY":279.3256,"EPHEMERIS_TYPE":0,"CLASSIFICATION_TYPE":"U","NORAD_CAT_ID":66286,"ELEMENT_SET_NO":999,"REV_AT_EPOCH":529,"BSTAR":-0.010191513,"MEAN_MOTION_DOT":-0.00443101,"MEAN_MOTION_DDOT":0},{"OBJECT_NAME":"STARLINK-34884","OBJECT_ID":"2025-247Y","EPOCH":"2025-11-27T02:03:19.899072","MEAN_MOTION":15.48792255,"ECCENTRICITY":0.00067333,"INCLINATION":53.1593,"RA_OF_ASC_NODE":310.9235,"ARG_OF_PERICENTER":291.9475,"MEAN_ANOMALY":68.0818,"EPHEMERIS_TYPE":0,"CLASSIFICATION_TYPE":"U","NORAD_CAT_ID":66287,"ELEMENT_SET_NO":999,"REV_AT_EPOCH":528,"BSTAR":0.0014127882,"MEAN_MOTION_DOT":0.0007754,"MEAN_MOTION_DDOT":0}]
